IRIDIUM 7               
1 24793U 97020B   25139.53670850  .00000313  00000+0  10117-3 0  9996
2 24793  86.4002 188.9055 0002218  99.8910 260.2537 14.35920766467782
IRIDIUM 5               
1 24795U 97020D   25139.44598305  .00003296  00000+0  27249-3 0  9999
2 24795  86.3871  96.9844 0106788 240.8684 118.1824 14.94159306481172
IRIDIUM 4               
1 24796U 97020E   25139.53814794  .00000274  00000+0  86077-4 0  9991
2 24796  86.3996 185.8047 0002204  93.4394 266.7055 14.36824685468358
IRIDIUM 914             
1 24836U 97030A   25139.55176385  .00000387  00000+0  11474-3 0  9999
2 24836  86.3980 194.4799 0001545  50.4860 309.6476 14.40850185603000
IRIDIUM 16              
1 24841U 97030F   25139.46881494  .00000423  00000+0  13156-3 0  9999
2 24841  86.4072 217.3286 0003838 127.0234 233.1316 14.38694949462871
IRIDIUM 911             
1 24842U 97030G   25139.56877112  .00000524  00000+0  13669-3 0  9994
2 24842  86.4498 216.0868 0014053 183.7456 176.3644 14.47611923470942
IRIDIUM 17              
1 24870U 97034B   25139.57755397  .00000449  00000+0  14255-3 0  9998
2 24870  86.3965 246.7768 0003862 101.6294 258.5337 14.37805763459478
IRIDIUM 920             
1 24871U 97034C   25139.48556719  .00000460  00000+0  13533-3 0  9997
2 24871  86.4005 226.1100 0012129 165.8487 194.3055 14.41511839462447
